0 GONETS M 06
1 39250U 13048B   20074.77987361 +.00000039 +00000-0 +21357-3 0  9999
2 39250 082.4887 328.6723 0017628 187.2880 172.7957 12.42939841295149
0 BREEZE-KM R/B
1 39252U 13048D   20074.80183434 +.00000031 +00000-0 +69518-4 0  9998
2 39252 082.4847 222.5676 0221853 119.0636 243.2885 12.79909765303927
0 TBA - TO BE ASSIGNED
1 39254U 13049B   20074.84810644 +.00000095 +00000-0 +20978-4 0  9992
2 39254 029.7043 249.3039 0182561 231.7199 126.6827 13.75215370326945
0 EPSILON R/B
1 39255U 13049C   20074.67881957 +.00000075 +00000-0 +83447-6 0  9999
2 39255 029.7513 067.6698 0113828 276.2227 082.5402 14.01035179332950
0 EPSILON R/B
1 39255U 13049C   20075.10633519  .00000079  00000-0  32497-5 0  9999
2 39255  29.7513  65.3231 0113826 279.9587  78.8168 14.01035190333114
0 AEHF 3 (USA 246)
1 39256U 13050A   20074.82267113 -.00000375 +00000-0 +00000-0 0  9993
2 39256 000.7017 338.3989 0006952 001.4217 240.3102 01.00274009022753
0 AEHF 3 (USA 246)
1 39256U 13050A   20075.80188369 -.00000376  00000-0  00000+0 0  9997
2 39256   0.7006 338.5458 0006948   1.6059 233.4677  1.00273486 23776
0 FENGYUN 3C
1 39260U 13052A   20075.77734870 -.00000024  00000-0  88989-5 0  9992
2 39260  98.5641 129.8445 0012130 122.8754 237.3590 14.15833852335363
0 FENGYUN 3C
1 39260U 13052A   20075.14132190 -.00000032  00000-0  50105-5 0  9998
2 39260  98.5642 129.2330 0012114 124.5611 235.6708 14.15833831335273
0 FENGYUN 3C
1 39260U 13052A   20074.85864332 -.00000035 +00000-0 +35947-5 0  9995
2 39260 098.5642 128.9613 0012109 125.2965 234.9344 14.15833807335166
0 CZ-4C R/B
1 39261U 13052B   20074.84565737 +.00000009 +00000-0 +20253-4 0  9995
2 39261 098.8893 217.7808 0030947 301.4278 058.3880 14.33194122338308
0 CZ-4C R/B
1 39261U 13052B   20075.12491218  .00000007  00000-0  19540-4 0  9994
2 39261  98.8893 218.0675 0030944 300.5754  59.2377 14.33194113338727
0 TBA - TO BE ASSIGNED
1 39265U 13055A   20075.78207189  .00001604  00000-0  45218-4 0  9990
2 39265  80.9672  52.2922 0662040 216.5189 138.9095 14.28949998334403
0 TBA - TO BE ASSIGNED
1 39265U 13055A   20074.87174013 +.00001592 +00000-0 +44920-4 0  9993
2 39265 080.9670 053.2435 0662010 219.1801 135.9659 14.28947246334292
0 CUSAT 1
1 39266U 13055B   20074.91052280 +.00002977 +00000-0 +79085-4 0  9998
2 39266 080.9851 037.5772 0631581 162.8881 199.4722 14.36640354335481
0 TBA - TO BE ASSIGNED
1 39267U 13055C   20074.89771503 +.00001447 +00000-0 +42440-4 0  9998
2 39267 081.0078 079.4219 0692353 262.2526 089.9566 14.21857184330828
0 TBA - TO BE ASSIGNED
1 39267U 13055C   20075.81253650  .00001403  00000-0  41145-4 0  9992
2 39267  81.0078  78.4802 0692358 259.6006  92.6485 14.21859495333295
0 TBA - TO BE ASSIGNED
1 39268U 13055D   20074.31885168 +.00002741 +00000-0 +73859-4 0  9995
2 39268 081.0033 036.6787 0620201 144.6138 219.7909 14.38634591334315
0 POPACS 2
1 39269U 13055E   20074.73356244 +.00001420 +00000-0 +40864-4 0  9993
2 39269 081.0122 072.0475 0678664 236.1365 117.3467 14.25073560332496
0 POPACS 3
1 39270U 13055F   20074.48579822 +.00001295 +00000-0 +40650-4 0  9999
2 39270 081.0136 092.6776 0709940 295.5513 057.3912 14.16651401311683
0 CUSAT 2/FALCON 9
1 39271U 13055G   20074.91083884 +.00004507 +00000-0 +10718-3 0  9996
2 39271 080.9698 008.6227 0593484 094.3367 272.5837 14.47066313337051
0 ASTRA 2E
1 39285U 13056A   20074.87797872 +.00000130 +00000-0 +00000-0 0  9994
2 39285 000.0716 045.3189 0002159 300.3060 171.8534 01.00272823023551
0 ASTRA 2E
1 39285U 13056A   20075.77896589  .00000130  00000-0  00000+0 0  9998
2 39285   0.0728  46.7295 0002158 300.2316 135.7648  1.00273266 23680
0 BREEZE-M R/B
1 39286U 13056B   20074.32628059 -.00000091 +00000-0 +00000-0 0  9992
2 39286 022.5990 250.0733 6069371 073.7493 342.0232 02.18178211051443
0 BREEZE-M DEB (TANK)
1 39287U 13056C   20074.87786428 +.00000239 +00000-0 +15420-3 0  9996
2 39287 049.5161 324.6671 5191579 102.1885 318.1778 05.23406848121816
0 NIMBUS 2 DEB
1 39294U 66040BC  20074.88146810  .00000555  00000-0  11136-2 0  9991
2 39294 100.3881 237.8199 0061568 222.4079 137.2279 13.38889018353462
0 TITAN 3C TRANSTAGE DEB
1 39296U 68081AG  20075.73811094  .00000055  00000-0  00000+0 0  9998
2 39296   4.6831 308.4385 0181060 352.8803 159.7812  1.00581760 56045
0 TITAN 3C TRANSTAGE DEB
1 39298U 68081AJ  20074.61199639 -.00000398 +00000-0 +00000-0 0  9992
2 39298 004.8261 309.8846 0174587 354.6206 224.5264 01.00165293043391
0 TITAN 3C TRANSTAGE DEB
1 39299U 68081AK  20074.60658775 -.00000432 +00000-0 +00000-0 0  9992
2 39299 004.8378 308.7340 0133278 053.3259 135.6907 01.00421336044245
0 TITAN 3C TRANSTAGE DEB
1 39299U 68081AK  20075.68334057 -.00000439  00000-0  00000+0 0  9991
2 39299   4.8356 308.7292 0133327  53.3988 164.8869  1.00420618 44244
0 SL-16 DEB
1 39301U 92093JS  20074.36105584 -.00000034 +00000-0 +75291-5 0  9991
2 39301 070.8788 301.8821 0031424 094.1743 266.2969 14.10618594339094
0 SL-16 DEB
1 39302U 92093JT  20074.42425594 +.00000951 +00000-0 +49972-3 0  9997
2 39302 070.9722 139.1594 0155214 197.7122 172.3427 14.10606948334303
0 SL-16 DEB
1 39304U 92093JV  20074.44230762 +.00000055 +00000-0 +64249-4 0  9992
2 39304 071.2069 319.0901 0093103 229.7802 304.2501 14.00682783340725
0 SL-16 DEB
1 39304U 92093JV  20075.28643612  .00000058  00000-0  66402-4 0  9993
2 39304  71.2068 317.3769 0093063 228.5160 240.7142 14.00682912914339
0 TBA - TO BE ASSIGNED
1 39307U 94029AES 20074.71007640 +.00000309 +00000-0 +41187-4 0  9991
2 39307 081.9719 345.6107 0239132 271.7960 085.5868 14.59166992446148
0 PEGASUS DEB
1 39310U 94029AEV 20075.29133131  .00000448  00000-0  96000-4 0  9992
2 39310  81.8202  85.0326 0297167  35.5281 326.5294 14.32607302515492
0 PEGASUS DEB
1 39311U 94029AEW 20075.03763943  .00000962  00000-0  17420-3 0  9994
2 39311  81.4388 353.9649 0228254  92.2620 270.4727 14.49784894889286
0 PEGASUS DEB
1 39317U 94029AFC 20075.73897464  .00001872  00000-0  95363-4 0  9997
2 39317  81.9577 186.1536 0061342 231.1806 128.3939 15.14552996968420
0 PEGASUS DEB
1 39317U 94029AFC 20074.74795732 +.00001836 +00000-0 +93511-4 0  9995
2 39317 081.9578 187.2007 0061331 234.6532 124.8958 15.14549446963241
0 PEGASUS DEB
1 39318U 94029AFD 20074.91020819 +.00000047 +00000-0 +43033-5 0  9990
2 39318 081.9555 137.3048 0200741 334.6468 200.1401 14.58246493944510
0 PEGASUS DEB
1 39320U 94029AFF 20075.74917063  .00000194  00000-0  48513-4 0  9991
2 39320  81.7594  87.9844 0311412 279.6689  76.9446 14.23052294893189
0 TBA - TO BE ASSIGNED
1 39322U 94029AFH 20075.80370771  .00000239  00000-0  45953-4 0  9994
2 39322  81.9310 123.3752 0285229  90.7202 272.6673 14.36167544880240
0 BREEZE-M DEB
1 39327U 08011DE  20074.92980932  .00001086  00000-0  44219-1 0  9995
2 39327  49.4700 142.4653 6473209 166.5194   1.0034  2.94958834 87272
0 BREEZE-M DEB
1 39330U 08011DH  20074.88775580 +.00002327 +00000-0 +86361-1 0  9998
2 39330 049.7164 126.4905 6427162 162.7191 001.4883 03.00820863070790
0 CZ-3B DEB
1 39332U 10042D   20068.26195834  .00000281  00000-0  62698-3 0  9996
2 39332  23.8332 257.1050 7454892 187.1419 147.8015  1.97367901 60019
0 TBA - TO BE ASSIGNED
1 39333U 10042E   20074.47550543 -.00000096 +00000-0 +31716-2 0  9990
2 39333 024.2561 312.7790 7451758 087.6443 013.0997 01.90595751046473
0 CZ-3B DEB
1 39335U 10042G   20074.76548071 -.00000376  00000-0 -49174-2 0  9996
2 39335  28.0869 319.8075 7380937 349.4650   8.8851  1.97152401 62793
0 CZ-3B DEB
1 39335U 10042G   20075.77720834 -.00000332  00000-0 -47049-2 0  9998
2 39335  28.0831 319.5272 7380851 349.9276   6.9495  1.97151874 62811
0 CZ-3C DEB
1 39346U 10057L   20074.58147504 -.00000171 +00000-0 -21667-2 0  9990
2 39346 019.9751 213.9848 7212155 087.4807 345.6201 02.17869396051100
0 CZ-3C DEB
1 39351U 10057R   20074.47317113 -.00000356 +00000-0 -61174-2 0  9991
2 39351 020.3830 176.1102 7095473 152.3377 351.4026 02.26401561053220
0 TBA - TO BE ASSIGNED
1 39353U 10057T   20074.40963578 -.00000152 +00000-0 +11160-2 0  9991
2 39353 019.8787 161.0416 7144978 194.7557 092.3243 02.23977423052517
0 CZ-3C DEB
1 39354U 10057U   20075.76507697 -.00000369  00000-0 -22108-2 0  9993
2 39354  20.2340 167.6091 7176820 175.8035 194.2450  2.21936369 66971
0 PAYLOAD A DEB
1 39357U 13037J   20074.92369707 +.00000008 +00000-0 +96271-5 0  9995
2 39357 098.0040 078.9468 0007764 203.3284 156.7570 14.68494591356565
0 SJ-16
1 39358U 13057A   20074.86908612 +.00000120 +00000-0 +17105-4 0  9998
2 39358 074.9751 333.1025 0018483 338.5335 021.5057 14.85636245346539
0 SJ-16
1 39358U 13057A   20075.81186500  .00000144  00000-0  19862-4 0  9996
2 39358  74.9751 331.3367 0018570 336.3239  23.7079 14.85636822346678
0 TBA - TO BE ASSIGNED
1 39359U 13057B   20075.85915531 -.00000102  00000-0 -25090-5 0  9992
2 39359  74.9920 130.2734 0082718 245.9935 113.2593 15.18550937353600
0 SIRIUS FM-6
1 39360U 13058A   20075.71036992 -.00000038  00000-0  00000+0 0  9990
2 39360   0.0019 188.2084 0000670 359.9434 125.1787  1.00277119 23435
0 SIRIUS FM-6
1 39360U 13058A   20074.46454293 -.00000037 +00000-0 +00000-0 0  9999
2 39360 000.0031 192.8334 0000899 033.3841 357.3870 01.00273713023243
0 SIRIUS FM-6
1 39360U 13058A   20075.29163185 -.00000037  00000-0  00000+0 0  9997
2 39360   0.0035 178.6488 0000772  47.4772 296.0449  1.00273850 23432
0 BREEZE-M DEB (TANK)
1 39362U 13058C   20074.38271339 +.00000610 +00000-0 +18954-3 0  9996
2 39362 049.5457 302.1114 5200566 095.7157 323.0645 05.25936678122132
0 TBA - TO BE ASSIGNED
1 39363U 13059A   20075.15981264  .00000306  00000-0  17953-4 0  9990
2 39363  97.2607 127.3372 0000865  62.2748  22.2714 15.18415266353334
